ASTROCAST-0403          
1 55111U 23001DG  26068.82333059  .00013959  00000+0  51317-3 0  9990
2 55111  97.5604 161.3228 0004771 338.0704  22.0330 15.28004949129377
STARLINK-30940          
1 58409U 23180H   26068.83408657 -.00002763  00000+0 -90928-4 0  9994
2 58409  43.0025 266.6490 0002281 277.2266  82.8327 15.27570165129359
